$$SOE
2460728.500000000, A.D. 2025-Feb-22 00:00:00.0000, -2.958284696975639E+08, -1.460827195242018E+08, -9.173590108944774E+06,
2460735.500000000, A.D. 2025-Mar-01 00:00:00.0000, -2.914532790735561E+08, -1.573790049214984E+08, -9.178094947072342E+06,
2460742.500000000, A.D. 2025-Mar-08 00:00:00.0000, -2.866892095674908E+08, -1.684653937433520E+08, -9.170354367320217E+06,
2460749.500000000, A.D. 2025-Mar-15 00:00:00.0000, -2.815470518663852E+08, -1.793297002427900E+08, -9.150520946342744E+06,
2460756.500000000, A.D. 2025-Mar-22 00:00:00.0000, -2.760378507096437E+08, -1.899603104217206E+08, -9.118759531643346E+06,
2460763.500000000, A.D. 2025-Mar-29 00:00:00.0000, -2.701728767252594E+08, -2.003461762419440E+08, -9.075246477845728E+06,
2460770.500000000, A.D. 2025-Apr-05 00:00:00.0000, -2.639635982723026E+08, -2.104768078769241E+08, -9.020168999290660E+06,
2460777.500000000, A.D. 2025-Apr-12 00:00:00.0000, -2.574216551976676E+08, -2.203422640549574E+08, -8.953724454322204E+06,
2460784.500000000, A.D. 2025-Apr-19 00:00:00.0000, -2.505588346600021E+08, -2.299331415150788E+08, -8.876119615856692E+06,
2460791.500000000, A.D. 2025-Apr-26 00:00:00.0000, -2.433870487016048E+08, -2.392405639096140E+08, -8.787569969467819E+06,
2460798.500000000, A.D. 2025-May-03 00:00:00.0000, -2.359183133993985E+08, -2.482561702597699E+08, -8.688299047967374E+06,
2460805.500000000, A.D. 2025-May-10 00:00:00.0000, -2.281647295089218E+08, -2.569721030762998E+08, -8.578537805006191E+06,
2460812.500000000, A.D. 2025-May-17 00:00:00.0000, -2.201384645082165E+08, -2.653809962995449E+08, -8.458524035211116E+06,
2460819.500000000, A.D. 2025-May-24 00:00:00.0000, -2.118517358118493E+08, -2.734759632156200E+08, -8.328501861577228E+06,
2460826.500000000, A.D. 2025-May-31 00:00:00.0000, -2.033167946794863E+08, -2.812505841280141E+08, -8.188721302548990E+06,
2460833.500000000, A.D. 2025-Jun-07 00:00:00.0000, -1.945459111590862E+08, -2.886988926589698E+08, -8.039437782543629E+06,
2460840.500000000, A.D. 2025-Jun-14 00:00:00.0000, -1.855513623655399E+08, -2.958153614170055E+08, -7.880911422459990E+06,
2460847.500000000, A.D. 2025-Jun-21 00:00:00.0000, -1.763454228137394E+08, -3.025948903651723E+08, -7.713406488303810E+06,
2460854.500000000, A.D. 2025-Jun-28 00:00:00.0000, -1.669403536161879E+08, -3.090327961829026E+08, -7.537191139732391E+06,
2460861.500000000, A.D. 2025-Jul-05 00:00:00.0000, -1.573483920012014E+08, -3.151248005132957E+08, -7.352537161806181E+06,
2460868.500000000, A.D. 2025-Jul-12 00:00:00.0000, -1.475817422812806E+08, -3.208670179405912E+08, -7.159719634923324E+06,
2460875.500000000, A.D. 2025-Jul-19 00:00:00.0000, -1.376525680203714E+08, -3.262559443057285E+08, -6.959016605773613E+06,
2460882.500000000, A.D. 2025-Jul-26 00:00:00.0000, -1.275729851285133E+08, -3.312884454449716E+08, -6.750708781902865E+06,
2460889.500000000, A.D. 2025-Aug-02 00:00:00.0000, -1.173550557586163E+08, -3.359617463561601E+08, -6.535079253045946E+06,
2460896.500000000, A.D. 2025-Aug-09 00:00:00.0000, -1.070107829257181E+08, -3.402734208309711E+08, -6.312413241373330E+06,
2460903.500000000, A.D. 2025-Aug-16 00:00:00.0000, -9.655210571896850E+07, -3.442213816358969E+08, -6.082997891425118E+06,
2460910.500000000, A.D. 2025-Aug-23 00:00:00.0000, -8.599089476303230E+07, -3.478038712404323E+08, -5.847122123681620E+06,
2460917.500000000, A.D. 2025-Aug-30 00:00:00.0000, -7.533894755109839E+07, -3.510194523898378E+08, -5.605076522081718E+06,
2460924.500000000, A.D. 2025-Sep-06 00:00:00.0000, -6.460798502065447E+07, -3.538669975299243E+08, -5.357153042218789E+06,
2460931.500000000, A.D. 2025-Sep-13 00:00:00.0000, -5.380965099679063E+07, -3.563456795709751E+08, -5.103644588627577E+06,
2460938.500000000, A.D. 2025-Sep-20 00:00:00.0000, -4.295551118514154E+07, -3.584549656396047E+08, -4.844844894720867E+06,
2460945.500000000, A.D. 2025-Sep-27 00:00:00.0000, -3.205705061474662E+07, -3.601946107120854E+08, -4.581048547007158E+06,
2460952.500000000, A.D. 2025-Oct-04 00:00:00.0000, -2.112567150929614E+07, -3.615646505922598E+08, -4.312550923255190E+06,
2460959.500000000, A.D. 2025-Oct-11 00:00:00.0000, -1.017269192388344E+07, -3.625653951765262E+08, -4.039648086188585E+06,
2460966.500000000, A.D. 2025-Oct-18 00:00:00.0000, 7.906551711984017E+05, -3.631974222778365E+08, -3.762636680085614E+06,
2460973.500000000, A.D. 2025-Oct-25 00:00:00.0000, 1.175322253254369E+07, -3.634615719932586E+08, -3.481813841341972E+06,
2460980.500000000, A.D. 2025-Nov-01 00:00:00.0000, 2.270394908397646E+07, -3.633589415940650E+08, -3.197477124790251E+06,
2460987.500000000, A.D. 2025-Nov-08 00:00:00.0000, 3.363186022200775E+07, -3.628908809650567E+08, -2.909924451040506E+06,
2460994.500000000, A.D. 2025-Nov-15 00:00:00.0000, 4.452606816457412E+07, -3.620589886481432E+08, -2.619454092556641E+06,
2461001.500000000, A.D. 2025-Nov-22 00:00:00.0000, 5.537577277368588E+07, -3.608651082661955E+08, -2.326364716658548E+06,
2461008.500000000, A.D. 2025-Nov-29 00:00:00.0000, 6.617026272513019E+07, -3.593113241869481E+08, -2.030955377919182E+06,
2461015.500000000, A.D. 2025-Dec-06 00:00:00.0000, 7.689891477318476E+07, -3.573999565556427E+08, -1.733525261607513E+06,
2461022.500000000, A.D. 2025-Dec-13 00:00:00.0000, 8.755119156970090E+07, -3.551335590578915E+08, -1.434373493003935E+06,
2461029.500000000, A.D. 2025-Dec-20 00:00:00.0000, 9.811664155689310E+07, -3.525149183832448E+08, -1.133799248877838E+06,
2461036.500000000, A.D. 2025-Dec-27 00:00:00.0000, 1.085848998839622E+08, -3.495470527942700E+08, -8.321018599982262E+05,
2461043.500000000, A.D. 2026-Jan-03 00:00:00.0000, 1.189456889090117E+08, -3.462332104110000E+08, -5.295808200868517E+05,
2461050.500000000, A.D. 2026-Jan-10 00:00:00.0000, 1.291888184144954E+08, -3.425768678801936E+08, -2.265357657784671E+05,
2461057.500000000, A.D. 2026-Jan-17 00:00:00.0000, 1.393041857869739E+08, -3.385817295073818E+08, 7.673354428498447E+04,
2461064.500000000, A.D. 2026-Jan-24 00:00:00.0000, 1.492817762598904E+08, -3.342517268128228E+08, 3.799272461625487E+05,
2461071.500000000, A.D. 2026-Jan-31 00:00:00.0000, 1.591116632678654E+08, -3.295910185038590E+08, 6.827453802816272E+05,
2461078.500000000, A.D. 2026-Feb-07 00:00:00.0000, 1.687840090020865E+08, -3.246039909113307E+08, 9.848878838751316E+05,
2461085.500000000, A.D. 2026-Feb-14 00:00:00.0000, 1.782890654471738E+08, -3.192952589016293E+08, 1.286054542601511E+06,
2461092.500000000, A.D. 2026-Feb-21 00:00:00.0000, 1.876171763103432E+08, -3.136696666859564E+08, 1.585944914461970E+06,
2461099.500000000, A.D. 2026-Feb-28 00:00:00.0000, 1.967587787771717E+08, -3.077322873690994E+08, 1.884258421236306E+06,
2461106.500000000, A.D. 2026-Mar-07 00:00:00.0000, 2.057044030527910E+08, -3.014884231775230E+08, 2.180694637788311E+06,
2461113.500000000, A.D. 2026-Mar-14 00:00:00.0000, 2.144446724834993E+08, -2.949436086848140E+08, 2.474953334474534E+06,
2461120.500000000, A.D. 2026-Mar-21 00:00:00.0000, 2.229703060645820E+08, -2.881036141229802E+08, 2.766734346590325E+06,
2461127.500000000, A.D. 2026-Mar-28 00:00:00.0000, 2.312721213488022E+08, -2.809744477393900E+08, 3.055737540113255E+06,
2461134.500000000, A.D. 2026-Apr-04 00:00:00.0000, 2.393410371753659E+08, -2.735623581527203E+08, 3.341662851131812E+06,
2461141.500000000, A.D. 2026-Apr-11 00:00:00.0000, 2.471680765171594E+08, -2.658738370543924E+08, 3.624210345367089E+06,
2461148.500000000, A.D. 2026-Apr-18 00:00:00.0000, 2.547443696301233E+08, -2.579156222479278E+08, 3.903080283642069E+06,
2461155.500000000, A.D. 2026-Apr-25 00:00:00.0000, 2.620611575755118E+08, -2.496947009964855E+08, 4.177973191338375E+06,
2461162.500000000, A.D. 2026-May-02 00:00:00.0000, 2.691097961702361E+08, -2.412183136915578E+08, 4.448589927513465E+06,
2461169.500000000, A.D. 2026-May-09 00:00:00.0000, 2.758817605143685E+08, -2.324939578892812E+08, 4.714631737506196E+06,
2461176.500000000, A.D. 2026-May-16 00:00:00.0000, 2.823686505008910E+08, -2.235293925536996E+08, 4.975800266473800E+06,
2461183.500000000, A.D. 2026-May-23 00:00:00.0000, 2.885621973901852E+08, -2.143326414635335E+08, 5.231797614065573E+06,
2461190.500000000, A.D. 2026-May-30 00:00:00.0000, 2.944542694005157E+08, -2.049119954432583E+08, 5.482326648457795E+06,
2461197.500000000, A.D. 2026-Jun-06 00:00:00.0000, 3.000368760225596E+08, -1.952760166677051E+08, 5.727091342043310E+06,
2461204.500000000, A.D. 2026-Jun-13 00:00:00.0000, 3.053021747493143E+08, -1.854335448103199E+08, 5.965796809190400E+06,
2461211.500000000, A.D. 2026-Jun-20 00:00:00.0000, 3.102424797494984E+08, -1.753937020766030E+08, 6.198149331953302E+06,
2461218.500000000, A.D. 2026-Jun-27 00:00:00.0000, 3.148502708161668E+08, -1.651658974295572E+08, 6.423856502732061E+06,
2461225.500000000, A.D. 2026-Jul-04 00:00:00.0000, 3.191182026196508E+08, -1.547598307459417E+08, 6.642627421489432E+06,
2461232.500000000, A.D. 2026-Jul-11 00:00:00.0000, 3.230391145475303E+08, -1.441854969953698E+08, 6.854172914364263E+06,
2461239.500000000, A.D. 2026-Jul-18 00:00:00.0000, 3.266060412530481E+08, -1.334531903729242E+08, 7.058205768255323E+06,
2461246.500000000, A.D. 2026-Jul-25 00:00:00.0000, 3.298122239649054E+08, -1.225735083354477E+08, 7.254440980440393E+06,
2461253.500000000, A.D. 2026-Aug-01 00:00:00.0000, 3.326511226338211E+08, -1.115573555391171E+08, 7.442596015951127E+06,
2461260.500000000, A.D. 2026-Aug-08 00:00:00.0000, 3.351164291546344E+08, -1.004159476589812E+08, 7.622391050822828E+06,
2461267.500000000, A.D. 2026-Aug-15 00:00:00.0000, 3.372020821005827E+08, -8.916081457711224E+07, 7.793549200692981E+06,
2461274.500000000, A.D. 2026-Aug-22 00:00:00.0000, 3.389022822346316E+08, -7.780380164988276E+07, 7.955796906181175E+06,
2461281.500000000, A.D. 2026-Aug-29 00:00:00.0000, 3.402115065358874E+08, -6.635707036059130E+07, 8.108864575082917E+06,
2461288.500000000, A.D. 2026-Sep-05 00:00:00.0000, 3.411245228907569E+08, -5.483310115529009E+07, 8.252487052354805E+06,
$$EOE